CCSDS_OMM_VERS = 2.0
CREATION_DATE  = 
ORIGINATOR     = 

OBJECT_NAME    = COSMOS 1933
OBJECT_ID      = 1988-020A
CENTER_NAME    = EARTH
REF_FRAME      = TEME
TIME_SYSTEM    = UTC
MEAN_ELEMENT_THEORY = SGP/SGP4

EPOCH          = 2025-12-05T21:26:11.362848
MEAN_MOTION    = 15.17022765
ECCENTRICITY   = .00053664
INCLINATION    = 82.5127
RA_OF_ASC_NODE = 343.6435
ARG_OF_PERICENTER = 146.1465
MEAN_ANOMALY   = 214.0112

EPHEMERIS_TYPE = 0
CLASSIFICATION_TYPE = U
NORAD_CAT_ID   = 18958
ELEMENT_SET_NO = 999
REV_AT_EPOCH   = 3600
BSTAR          = .36973416E-3
MEAN_MOTION_DOT = .7341E-4
MEAN_MOTION_DDOT = 0

CCSDS_OMM_VERS = 2.0
CREATION_DATE  = 
ORIGINATOR     = 

OBJECT_NAME    = SL-3 R/B
OBJECT_ID      = 1988-032B
CENTER_NAME    = EARTH
REF_FRAME      = TEME
TIME_SYSTEM    = UTC
MEAN_ELEMENT_THEORY = SGP/SGP4

EPOCH          = 2025-12-05T22:38:16.525248
MEAN_MOTION    = 15.18637154
ECCENTRICITY   = .00259834
INCLINATION    = 97.5072
RA_OF_ASC_NODE = 318.7111
ARG_OF_PERICENTER = 196.8111
MEAN_ANOMALY   = 163.2265

EPHEMERIS_TYPE = 0
CLASSIFICATION_TYPE = U
NORAD_CAT_ID   = 19046
ELEMENT_SET_NO = 999
REV_AT_EPOCH   = 3787
BSTAR          = .39603351E-3
MEAN_MOTION_DOT = .8206E-4
MEAN_MOTION_DDOT = 0

CCSDS_OMM_VERS = 2.0
CREATION_DATE  = 
ORIGINATOR     = 

OBJECT_NAME    = SL-16 R/B
OBJECT_ID      = 1988-039B
CENTER_NAME    = EARTH
REF_FRAME      = TEME
TIME_SYSTEM    = UTC
MEAN_ELEMENT_THEORY = SGP/SGP4

EPOCH          = 2025-12-05T23:34:45.114240
MEAN_MOTION    = 14.19594772
ECCENTRICITY   = .00199095
INCLINATION    = 71.0150
RA_OF_ASC_NODE = 266.6855
ARG_OF_PERICENTER = 127.7484
MEAN_ANOMALY   = 232.5449

EPHEMERIS_TYPE = 0
CLASSIFICATION_TYPE = U
NORAD_CAT_ID   = 19120
ELEMENT_SET_NO = 999
REV_AT_EPOCH   = 94508
BSTAR          = .13942513E-3
MEAN_MOTION_DOT = .247E-5
MEAN_MOTION_DDOT = 0

CCSDS_OMM_VERS = 2.0
CREATION_DATE  = 
ORIGINATOR     = 

OBJECT_NAME    = COSMOS 1953
OBJECT_ID      = 1988-050A
CENTER_NAME    = EARTH
REF_FRAME      = TEME
TIME_SYSTEM    = UTC
MEAN_ELEMENT_THEORY = SGP/SGP4

EPOCH          = 2025-12-05T19:45:22.872096
MEAN_MOTION    = 15.26818443
ECCENTRICITY   = .00137892
INCLINATION    = 82.5102
RA_OF_ASC_NODE = 252.5200
ARG_OF_PERICENTER = 92.4776
MEAN_ANOMALY   = 267.8041

EPHEMERIS_TYPE = 0
CLASSIFICATION_TYPE = U
NORAD_CAT_ID   = 19210
ELEMENT_SET_NO = 999
REV_AT_EPOCH   = 2345
BSTAR          = .4027837E-3
MEAN_MOTION_DOT = .10677E-3
MEAN_MOTION_DDOT = 0

CCSDS_OMM_VERS = 2.0
CREATION_DATE  = 
ORIGINATOR     = 

OBJECT_NAME    = SL-8 R/B
OBJECT_ID      = 1988-053B
CENTER_NAME    = EARTH
REF_FRAME      = TEME
TIME_SYSTEM    = UTC
MEAN_ELEMENT_THEORY = SGP/SGP4

EPOCH          = 2025-12-05T22:27:49.076352
MEAN_MOTION    = 14.38852492
ECCENTRICITY   = .00191456
INCLINATION    = 74.0476
RA_OF_ASC_NODE = 285.2590
ARG_OF_PERICENTER = 131.8909
MEAN_ANOMALY   = 294.0089

EPHEMERIS_TYPE = 0
CLASSIFICATION_TYPE = U
NORAD_CAT_ID   = 19257
ELEMENT_SET_NO = 999
REV_AT_EPOCH   = 96311
BSTAR          = .16620211E-3
MEAN_MOTION_DOT = .486E-5
MEAN_MOTION_DDOT = 0

CCSDS_OMM_VERS = 2.0
CREATION_DATE  = 
ORIGINATOR     = 

OBJECT_NAME    = COSMOS 1975
OBJECT_ID      = 1988-093A
CENTER_NAME    = EARTH
REF_FRAME      = TEME
TIME_SYSTEM    = UTC
MEAN_ELEMENT_THEORY = SGP/SGP4

EPOCH          = 2025-12-05T21:32:26.642976
MEAN_MOTION    = 15.26322098
ECCENTRICITY   = .00124024
INCLINATION    = 82.5207
RA_OF_ASC_NODE = 211.6773
ARG_OF_PERICENTER = 133.9641
MEAN_ANOMALY   = 226.2623

EPHEMERIS_TYPE = 0
CLASSIFICATION_TYPE = U
NORAD_CAT_ID   = 19573
ELEMENT_SET_NO = 999
REV_AT_EPOCH   = 509
BSTAR          = .40554601E-3
MEAN_MOTION_DOT = .10584E-3
MEAN_MOTION_DDOT = 0

CCSDS_OMM_VERS = 2.0
CREATION_DATE  = 
ORIGINATOR     = 

OBJECT_NAME    = SL-14 R/B
OBJECT_ID      = 1988-093B
CENTER_NAME    = EARTH
REF_FRAME      = TEME
TIME_SYSTEM    = UTC
MEAN_ELEMENT_THEORY = SGP/SGP4

EPOCH          = 2025-12-05T21:57:29.747232
MEAN_MOTION    = 14.85537394
ECCENTRICITY   = .00205124
INCLINATION    = 82.5299
RA_OF_ASC_NODE = 130.0717
ARG_OF_PERICENTER = 352.5949
MEAN_ANOMALY   = 123.2195

EPHEMERIS_TYPE = 0
CLASSIFICATION_TYPE = U
NORAD_CAT_ID   = 19574
ELEMENT_SET_NO = 999
REV_AT_EPOCH   = 98711
BSTAR          = .10588551E-3
MEAN_MOTION_DOT = .942E-5
MEAN_MOTION_DDOT = 0

CCSDS_OMM_VERS = 2.0
CREATION_DATE  = 
ORIGINATOR     = 

OBJECT_NAME    = SL-16 R/B
OBJECT_ID      = 1988-102B
CENTER_NAME    = EARTH
REF_FRAME      = TEME
TIME_SYSTEM    = UTC
MEAN_ELEMENT_THEORY = SGP/SGP4

EPOCH          = 2025-12-05T17:57:10.976544
MEAN_MOTION    = 14.16137113
ECCENTRICITY   = .00132853
INCLINATION    = 71.0002
RA_OF_ASC_NODE = 349.1551
ARG_OF_PERICENTER = 163.6790
MEAN_ANOMALY   = 196.4764

EPHEMERIS_TYPE = 0
CLASSIFICATION_TYPE = U
NORAD_CAT_ID   = 19650
ELEMENT_SET_NO = 999
REV_AT_EPOCH   = 91359
BSTAR          = -.52190957E-4
MEAN_MOTION_DOT = -.151E-5
MEAN_MOTION_DDOT = 0

CCSDS_OMM_VERS = 2.0
CREATION_DATE  = 
ORIGINATOR     = 

OBJECT_NAME    = INTERCOSMOS 24
OBJECT_ID      = 1989-080A
CENTER_NAME    = EARTH
REF_FRAME      = TEME
TIME_SYSTEM    = UTC
MEAN_ELEMENT_THEORY = SGP/SGP4

EPOCH          = 2025-12-05T18:03:55.239552
MEAN_MOTION    = 12.59419833
ECCENTRICITY   = .11887568
INCLINATION    = 82.6046
RA_OF_ASC_NODE = 165.4957
ARG_OF_PERICENTER = 150.7236
MEAN_ANOMALY   = 216.6200

EPHEMERIS_TYPE = 0
CLASSIFICATION_TYPE = U
NORAD_CAT_ID   = 20261
ELEMENT_SET_NO = 999
REV_AT_EPOCH   = 65497
BSTAR          = .44113507E-3
MEAN_MOTION_DOT = .1517E-4
MEAN_MOTION_DDOT = 0

CCSDS_OMM_VERS = 2.0
CREATION_DATE  = 
ORIGINATOR     = 

OBJECT_NAME    = SL-14 R/B
OBJECT_ID      = 1989-080C
CENTER_NAME    = EARTH
REF_FRAME      = TEME
TIME_SYSTEM    = UTC
MEAN_ELEMENT_THEORY = SGP/SGP4

EPOCH          = 2025-12-05T22:39:03.818880
MEAN_MOTION    = 12.50405245
ECCENTRICITY   = .12307628
INCLINATION    = 82.5937
RA_OF_ASC_NODE = 233.3824
ARG_OF_PERICENTER = 39.1163
MEAN_ANOMALY   = 329.2675

EPHEMERIS_TYPE = 0
CLASSIFICATION_TYPE = U
NORAD_CAT_ID   = 20262
ELEMENT_SET_NO = 999
REV_AT_EPOCH   = 64843
BSTAR          = .22222515E-3
MEAN_MOTION_DOT = .758E-5
MEAN_MOTION_DDOT = 0

CCSDS_OMM_VERS = 2.0
CREATION_DATE  = 
ORIGINATOR     = 

OBJECT_NAME    = DELTA 1 R/B
OBJECT_ID      = 1989-089B
CENTER_NAME    = EARTH
REF_FRAME      = TEME
TIME_SYSTEM    = UTC
MEAN_ELEMENT_THEORY = SGP/SGP4

EPOCH          = 2025-12-05T21:06:48.327264
MEAN_MOTION    = 14.50563772
ECCENTRICITY   = .00704737
INCLINATION    = 97.0757
RA_OF_ASC_NODE = 197.2043
ARG_OF_PERICENTER = 59.5973
MEAN_ANOMALY   = 301.2165

EPHEMERIS_TYPE = 0
CLASSIFICATION_TYPE = U
NORAD_CAT_ID   = 20323
ELEMENT_SET_NO = 999
REV_AT_EPOCH   = 88213
BSTAR          = .17854838E-3
MEAN_MOTION_DOT = .687E-5
MEAN_MOTION_DDOT = 0

CCSDS_OMM_VERS = 2.0
CREATION_DATE  = 
ORIGINATOR     = 

OBJECT_NAME    = ARIANE 40 R/B
OBJECT_ID      = 1990-005H
CENTER_NAME    = EARTH
REF_FRAME      = TEME
TIME_SYSTEM    = UTC
MEAN_ELEMENT_THEORY = SGP/SGP4

EPOCH          = 2025-12-05T22:17:23.573184
MEAN_MOTION    = 14.39790622
ECCENTRICITY   = .00111037
INCLINATION    = 98.3252
RA_OF_ASC_NODE = 38.2989
ARG_OF_PERICENTER = 124.3026
MEAN_ANOMALY   = 235.9215

EPHEMERIS_TYPE = 0
CLASSIFICATION_TYPE = U
NORAD_CAT_ID   = 20443
ELEMENT_SET_NO = 999
REV_AT_EPOCH   = 87931
BSTAR          = .2155026E-3
MEAN_MOTION_DOT = .634E-5
MEAN_MOTION_DDOT = 0

