COSMOS 1933             
1 18958U 88020A   25339.89318707  .00007341  00000+0  36973-3 0  9999
2 18958  82.5127 343.6435 0005366 146.1465 214.0112 15.17022765 36009
SL-3 R/B                
1 19046U 88032B   25339.94324682  .00008206  00000+0  39603-3 0  9990
2 19046  97.5072 318.7111 0025983 196.8111 163.2265 15.18637154 37879
SL-16 R/B               
1 19120U 88039B   25339.98246660  .00000247  00000+0  13943-3 0  9999
2 19120  71.0150 266.6855 0019909 127.7484 232.5449 14.19594772945082
COSMOS 1953             
1 19210U 88050A   25339.82318139  .00010677  00000+0  40278-3 0  9995
2 19210  82.5102 252.5200 0013789  92.4776 267.8041 15.26818443 23456
SL-8 R/B                
1 19257U 88053B   25339.93598468  .00000486  00000+0  16620-3 0  9997
2 19257  74.0476 285.2590 0019145 131.8909 294.0089 14.38852492963114
COSMOS 1975             
1 19573U 88093A   25339.89753059  .00010584  00000+0  40555-3 0  9990
2 19573  82.5207 211.6773 0012402 133.9641 226.2623 15.26322098  5099
SL-14 R/B               
1 19574U 88093B   25339.91492763  .00000942  00000+0  10589-3 0  9997
2 19574  82.5299 130.0717 0020512 352.5949 123.2195 14.85537394987117
SL-16 R/B               
1 19650U 88102B   25339.74804371 -.00000151  00000+0 -52191-4 0  9996
2 19650  71.0002 349.1551 0013285 163.6790 196.4764 14.16137113913594
INTERCOSMOS 24          
1 20261U 89080A   25339.75272268  .00001517  00000+0  44114-3 0  9997
2 20261  82.6046 165.4957 1188756 150.7236 216.6200 12.59419833654979
SL-14 R/B               
1 20262U 89080C   25339.94379420  .00000758  00000+0  22223-3 0  9990
2 20262  82.5937 233.3824 1230762  39.1163 329.2675 12.50405245648434
DELTA 1 R/B             
1 20323U 89089B   25339.87972601  .00000687  00000+0  17855-3 0  9995
2 20323  97.0757 197.2043 0070473  59.5973 301.2165 14.50563772882132
ARIANE 40 R/B           
1 20443U 90005H   25339.92874506  .00000634  00000+0  21550-3 0  9998
2 20443  98.3252  38.2989 0011103 124.3026 235.9215 14.39790622879315
